IRIDIUM 150             
1 43257U 18030J   25185.21253917  .00000013  00000+0 -22833-5 0  9991
2 43257  86.3948  75.9465 0001882  78.3958 281.7449 14.34217488380307
IRIDIUM 143             
1 43258U 18030K   25185.68189062 -.00000003  00000+0 -79774-5 0  9998
2 43258  86.3950  75.8294 0001676  75.9645 284.1737 14.34217397380314
IRIDIUM 161             
1 43478U 18047C   25185.68283129  .00000235  00000+0  63873-4 0  9996
2 43478  86.4478 233.6274 0002674  90.2556 269.8951 14.43277322375019
IRIDIUM 152             
1 43479U 18047D   25185.51507308  .00000027  00000+0  24826-5 0  9992
2 43479  86.3957 233.5572 0002449  91.8012 268.3464 14.34217660372665
IRIDIUM 147             
1 43480U 18047E   25185.66095223 -.00000002  00000+0 -78819-5 0  9994
2 43480  86.3961 233.4951 0002223  96.8571 263.2878 14.34217408372671
IRIDIUM 110             
1 43481U 18047F   25185.52775875  .00000038  00000+0  64730-5 0  9992
2 43481  86.3960 233.6336 0002780  96.9381 263.2131 14.34217782372642
IRIDIUM 162             
1 43482U 18047G   25185.19121341  .00000178  00000+0  46995-4 0  9996
2 43482  86.4480 233.7269 0002715  91.7618 268.3894 14.43283923374937
IRIDIUM 160             
1 43569U 18061A   25184.56660326 -.00000019  00000+0 -14005-4 0  9992
2 43569  86.3987 202.4402 0002401  93.3194 266.8276 14.34217444363407
